ZCZC
SXCI40 BFLB 011200
AAXX 01121
57070 32762 80902 10229 20182 40129 8652/=
57074 32965 71101 10233 20171 40128 80002=
57076 32962 60901 10229 20173 40125 80002=
57065 32965 80401 10227 20170 40125 80007=
57066 31758 70000 10225 20176 40118 71000 875//=
57078 32965 70903 10224 20162 40131 80002=
57162 32975 70902 10244 20168 40123 82032=
NNNN 

