ZCZC
SXCI40 BFLB 010600
AAXX 01061
57070 32965 61404 10251 20168 40128 81032=
57074 32670 20901 10282 20168 40128 81101=
57076 32970 40403 10263 20180 40126 80002=
57065 32665 30702 10272 20168 40124 83101=
57066 32961 50000 10249 20188 40122 80002=
57078 32665 40904 10257 20168 40128 81102=
57162 32570 60404 10272 20161 40122 81102=
NNNN 

