ZCZC
SXCI40 BFLB 030600
AAXX 03061
57070 32762 60702 10268 20199 40101 86100=
57074 32670 51101 10309 20193 40096 85100=
57076 32662 10905 10281 20208 40097 81100=
57065 32662 60403 10280 20198 40098 86100=
57066 32563 30701 10283 20190 40090 83100=
57078 32565 21104 10294 20166 40094 82100=
57162 32568 70403 10290 20181 40094 87101=
NNNN 

