ZCZC
SXCI40 BFLB 031200
AAXX 03121
57070 32962 60902 10241 20222 40098 86030=
57074 32970 00401 10260 20208 40095=
57076 32965 10703 10259 20203 40096 81030=
57065 32960 10401 10247 20195 40093 81030=
57066 32663 20000 10236 20197 40092 81130=
57078 32965 21101 10254 20193 40098 80002=
57162 32563 31802 10256 20204 40098 82130=
NNNN 

