ZCZC
SXCI40 BFLB 040000
AAXX 04001
57070 31920 80000 10226 20226 40086 71000 8802/ 333 05402
10275 20209=
57074 31956 81601 10229 20199 40090 71000 8807/ 333 05402
10311 20210=
57076 31950 82701 10233 20232 40086 71000 8802/ 333 05302
10289 20213=
57065 31958 72901 10218 20182 40091 71000 8703/ 333 05401
10291 20205=
57066 31957 01601 10198 20181 40088 71000 333 05401 10287
20191=
57078 31956 82001 10213 20179 40089 71000 8807/ 333 05301
10295 20199=
57162 32966 10000 10203 20174 40097 81030 333 05301 10302
20196=
NNNN 

