ZCZC
SXCI40 BFLB 041200
AAXX 04121
57070 32965 60702 10269 20214 40053 86030=
57074 32962 61101 10280 20232 40050 82032=
57076 32962 40703 10280 20236 40055 82032=
57065 32960 50000 10268 20216 40050 85030=
57066 32963 40000 10253 20218 40051 84030=
57078 32962 10901 10265 20210 40052 81030=
57162 32966 21401 10277 20231 40057 82030=
NNNN 

