ZCZC
SXCI40 BFLB 040600
AAXX 04061
57070 32664 20902 10297 20211 40062 82100=
57074 32562 21401 10319 20205 40059 81130=
57076 32564 32201 10340 20205 40070 83100=
57065 32962 72901 10308 20207 40062 8703/=
57066 32670 10000 10297 20200 40060 81130=
57078 32565 21103 10299 20221 40059 82200=
57162 32568 70401 10313 20207 40061 81130=
NNNN 

