ZCZC
SXCI40 BFLB 050000
AAXX 05001
57070 31920 81602 10241 20238 40057 71000 8801/ 333 05302
10309 20226=
57074 31958 81401 10247 20218 40058 71000 8802/ 333 05302
10331 20229=
57076 31940 83201 10249 20239 40059 71000 8802/ 333 05302
10315 20231=
57065 31956 02901 10243 20208 40059 71000 333 05303 10323
20218=
57066 31957 70000 10223 20202 40058 71000 80002 333 05303
10304 20198=
57078 31956 82001 10231 20193 40060 71000 8801/ 333 05302
10307 20212=
57162 31957 22001 10224 20193 40064 71000 81032 333 05302
10316 20206=
NNNN 

