ZCZC
SXCI40 BFLB 050600
AAXX 05061
57070 32761 70903 10302 20244 40036 872//=
57074 32665 60703 10311 20237 40034 86200=
57076 32961 70903 10304 20240 40032 8703/=
57065 31658 40403 10314 20235 40032 71000 84100=
57066 32963 01801 10307 20234 40029=
57078 32665 41402 10318 20216 40028 84100=
57162 31559 60903 10322 20234 40029 71000 83202=
NNNN 

