ZCZC
SXCI40 BFLB 051200
AAXX 05121
57070 32961 80904 10261 20249 40041 8802/=
57074 32962 60402 10292 20245 40037 80002=
57076 31956 80407 10263 20240 40038 71000 8802/=
57065 31940 80702 10274 20236 40037 71000 8802/=
57066 31956 81101 10277 20239 40028 71000 8802/=
57078 32962 80401 10282 20220 40037 8807/=
57162 31958 70000 10278 20237 40037 71000 8703/=
NNNN 

