ZCZC
SXCI40 BFLB 061200
AAXX 06121
57070 11520 80703 10181 20179 40103 60021 76166 8672/=
57074 11656 80202 10206 20170 40099 69901 76060 8372/=
57076 32980 80406 10185 20148 40099 8802/=
57065 11920 80402 10195 20162 40104 69981 76060 8802/=
57066 11530 81101 10199 20182 40094 69951 76060 8672/=
57078 11958 80903 10210 20178 40088 69901 76060 8802/=
57162 11950 80203 10205 20193 40093 69941 76060 8802/=
NNNN 

