ZCZC
SXCI40 BFLB 060600
AAXX 06061
57070 11520 80704 10221 20221 40072 69911 76066 8772/=
57074 11956 80402 10249 20226 40064 69901 76060 8802/=
57076 11558 80407 10239 20223 40067 69901 71060 8272/=
57065 11920 80000 10240 20215 40068 69901 71060 8802/=
57066 11920 80000 10234 20220 40064 69911 76160 8802/=
57078 31958 80702 10269 20232 40056 71000 8802/=
57162 31950 83602 10251 20231 40067 71000 8802/=
NNNN 

