ZCZC
SXCI40 BFLB 071200
AAXX 07121
57070 11930 80702 10145 20142 40161 69911 71060 8802/=
57074 11956 80401 10160 20149 40159 69901 76060 8802/=
57076 31950 80402 10155 20132 40150 71000 8802/=
57065 11658 80401 10162 20129 40157 69911 71060 8272/=
57066 11558 80701 10152 20136 40154 69901 76066 8272/=
57078 11540 80701 10155 20123 40154 69911 71060 8572/=
57162 11550 80203 10158 20146 40155 69911 76060 8372/=
NNNN 

