ZCZC
SXCI40 BFLB 080000
AAXX 08001
57070 31930 80901 10149 20146 40178 71000 8802/ 333 00300
10154 20144 70007=
57074 11656 80701 10162 20147 40179 69932 71060 8272/ 333
00300 10174 20154 70016=
57076 32961 80402 10161 20127 40171 8802/ 333 00300 10162
20130 70006=
57065 31940 80401 10163 20134 40178 71000 8802/ 333 00300
10169 20157 70080=
57066 11956 80000 10151 20136 40175 69922 76060 8802/ 333
00300 10170 20148 70043=
57078 11940 80000 10158 20133 40175 69912 71060 8802/ 333
00300 10172 20150 70003=
57162 11558 83603 10158 20142 40191 69932 71060 8572/ 333
00400 10180 20151 70027=
NNNN 

