ZCZC
SXCI40 BFLB 080600
AAXX 08061
57070 32962 80202 10169 20144 40167 8802/=
57074 31958 80401 10180 20139 40167 71000 8802/=
57076 32961 80702 10176 20134 40159 8802/=
57065 32962 80901 10181 20138 40167 8802/=
57066 11557 80000 10162 20146 40164 69901 76160 8672/=
57078 31556 80901 10179 20126 40164 71000 8372/=
57162 32963 80903 10176 20145 40165 8807/=
NNNN

