ZCZC
SXCI40 BFLB 090000
AAXX 09001
57070 11915 80000 10148 20148 40182 60012 71060 8802/ 333
00000 10170 20143 70014=
57074 11958 80000 10165 20149 40183 69912 71060 8802/ 333
00000 10182 20162 70001=
57065 11956 80401 10164 20142 40181 69932 71060 8802/ 333
00000 10186 20162 70003=
57066 11958 80000 10157 20142 40179 69902 71060 8802/ 333
00001 10163 20151 79999=
57078 11930 80000 10163 20140 40180 69932 71060 8802/ 333
00101 10180 20155 70003=
57162 11957 83601 10162 20145 40181 69952 71060 8802/ 333
05100 10179 20156 70005=
57076 11950 83201 10156 20149 40179 69972 71060 8802/ 333
00151 10183 20152 70017=
NNNN

