ZCZC
SXCI40 BFLB 091200
AAXX 09121
57070 32968 80402 10182 20143 40151 8807/=
57074 32962 71401 10197 20149 40151 8703/=
57065 32962 80701 10196 20144 40149 8807/=
57066 32962 80000 10177 20142 40144 8807/=
57078 31956 80402 10183 20130 40152 71000 8802/=
57162 32965 80403 10200 20144 40148 8807/=
57076 32970 60402 10190 20140 40146 86030=
NNNN 

