ZCZC
SXCI40 BFLB 100600
AAXX 10061
57070 32965 81401 10199 20151 40128 8807/=
57074 32962 80901 10214 20143 40130 8802/=
57076 32965 80000 10206 20140 40128 8802/=
57065 32962 80000 10211 20138 40130 8802/=
57066 32963 80000 10193 20154 40132 8802/=
57078 32960 82201 10209 20143 40126 8802/=
57162 32962 80402 10206 20149 40131 8807/=
NNNN

