ZCZC
SXCI40 BFLB 110600
AAXX 11061
57070 11761 82701 10217 20179 40124 69901 76000 8552/=
57074 32965 80701 10244 20169 40121 8807/=
57076 32961 83203 10215 20170 40115 8802/=
57065 11962 82704 10234 20155 40124 69901 76000 8802/=
57066 32965 80000 10221 20179 40128 8802/=
57078 32962 73204 10245 20154 40116 8703/=
57162 32965 80901 10242 20178 40119 8807/=
NNNN 

