ZCZC
SXCI40 BFLB 110000
AAXX 11001
57070 31930 80000 10184 20169 40125 71000 8807/ 333 05101
10205 20174=
57074 32962 71601 10196 20168 40128 8703/ 333 05101 10216
20182=
57076 11958 80000 10187 20172 40122 69902 71060 8802/ 333
05101 10209 20175 79999=
57065 31958 82701 10197 20158 40126 71000 8802/ 333 05101
10216 20187=
57066 32961 80000 10182 20164 40130 8802/ 333 00001 10195
20171=
57078 31940 82001 10189 20154 40125 71000 8802/ 333 05102
10211 20169=
57162 31958 80000 10192 20166 40130 71000 8802/ 333 05101
10207 20182=
NNNN

