ZCZC
SXCI40 BFLB 121200
AAXX 12121
57070 11965 82202 10157 20151 40183 60021 76060 8802/=
57074 11663 81401 10175 20130 40184 60011 76060 8372/=
57076 11975 82702 10174 20128 40177 69921 76060 8802/=
57065 11956 83201 10171 20128 40185 60011 76060 8802/=
57066 11561 80000 10149 20134 40186 60071 76166 8572/=
57078 11956 83601 10156 20122 40185 60031 76060 8802/=
57162 11558 81801 10158 20126 40186 60031 76160 8272/=
NNNN

