ZCZC
SXCI40 BFLB 130600
AAXX 13061
57070 11568 82701 10168 20163 40175 60021 76166 8272/=
57074 11663 80000 10179 20162 40173 60051 76066 8572/=
57076 11662 80000 10174 20164 40170 60021 76060 8372/=
57065 11640 80000 10178 20151 40176 60041 76066 8572/=
57066 11656 80000 10164 20153 40175 60101 76366 8802/=
57078 11562 80000 10174 20149 40169 60041 76066 8672/=
57162 11962 80000 10171 20154 40173 60061 70060 8802/=
NNNN 

