ZCZC
SXCI40 BFLB 140000
AAXX 14001
57070 11968 82505 10171 20161 40157 60062 70060 8807/ 333
05201 10171 20154 70173=
57074 11562 81601 10171 20161 40162 60072 70060 8672/ 333
05201 10180 20165 70231=
57076 11956 80000 10165 20162 40157 60082 71060 8802/ 333
05201 10178 20156 70171=
57065 11978 82702 10175 20146 40159 60052 70060 8807/ 333
05201 10178 20163 70193=
57066 11656 80000 10162 20152 40167 60072 76166 8802/ 333
05201 10166 20152 70230=
57078 11962 82702 10170 20143 40159 60092 76060 8802/ 333
05201 10175 20159 70162=
57162 11557 80202 10166 20156 40168 60102 76166 8672/ 333
05200 10172 20158 70164=
NNNN 

