ZCZC
SXCI40 BFLB 140600
AAXX 14061
57070 11975 82505 10201 20167 40140 69901 76000 8807/=
57074 11662 81101 10210 20166 40144 69971 76060 8572/=
57076 11963 82002 10208 20167 40138 69901 76000 8802/=
57065 11680 82703 10205 20155 40143 69901 76060 8272/=
57066 11568 80000 10196 20164 40152 69931 76060 8372/=
57078 11575 82702 10208 20140 40140 69971 76060 8372/=
57162 11977 82202 10209 20160 40146 60011 76060 8802/=
NNNN

