ZCZC
SXCI40 BFLB 151200
AAXX 15121
57070 32971 20703 10219 20177 40136 80002=
57074 32965 70901 10231 20159 40135 85032=
57076 32970 50405 10231 20167 40131 85030=
57065 32975 70701 10222 20167 40135 8703/=
57066 32975 80000 10223 20147 40128 8807/=
57078 32965 53601 10220 20161 40137 85030=
57162 32975 73601 10231 20150 40136 8703/=
NNNN 

