ZCZC
SXCI40 BFLB 150000
AAXX 15001
57070 32965 02901 10163 20152 40150 333 05151 10210 20140
79999=
57074 32961 00000 10145 20135 40154 333 05153 10214 20135
70008=
57076 32963 02703 10161 20142 40144 333 05100 10209 20148
70001=
57065 32972 02703 10164 20122 40153 333 05151 10213 20139
70001=
57066 32970 02502 10152 20134 40157 333 05151 10205 20131
70003=
57078 32980 02002 10158 20116 40150 333 05151 10211 20125
70007=
57162 32980 01602 10152 20114 40156 333 05151 10211 20129
70011=
NNNN

