ZCZC
SXCI40 BFLB 161200
AAXX 16121
57070 11565 82701 10177 20169 40132 69971 76066 8572/=
57074 32962 80000 10202 20162 40131 8807/=
57076 11950 80000 10186 20166 40130 69901 76060 8802/=
57065 11965 80000 10190 20147 40132 69901 76060 8802/=
57066 11961 80000 10187 20167 40132 69901 70060 8807/=
57078 32962 82901 10195 20156 40130 8802/=
57162 32966 80000 10201 20167 40139 8807/=
NNNN

