ZCZC
SXCI40 BFLB 160000
AAXX 16001
57070 11530 82701 10185 20185 40147 69992 71060 8272/ 333
00002 10271 20164 70009=
57074 11962 80000 10190 20153 40152 60012 76160 8802/ 333
00005 10299 20145 70010=
57076 11958 83401 10191 20183 40147 69992 76060 8802/ 333
00103 10274 20160 70009=
57065 11656 80000 10191 20165 40152 60012 76060 8372/ 333
00003 10290 20164 70014=
57066 11661 80000 10177 20164 40149 60032 76060 8372/ 333
00003 10282 20152 70033=
57078 11965 82901 10182 20155 40149 69982 70060 8807/ 333
00002 10273 20158 70008=
57162 11970 82701 10181 20159 40153 69902 70060 8807/ 333
00003 10291 20154 79999=
NNNN 

