ZCZC
SXCI40 BFLB 170600
AAXX 17061
57070 32970 72502 10242 20182 40111 8703/=
57074 11961 70401 10261 20177 40110 69901 70060 8703/=
57076 11961 72501 10242 20179 40106 69901 70060 8703/=
57065 11962 72701 10257 20171 40111 69911 70060 8703/=
57066 32970 70000 10253 20172 40108 8703/=
57078 32968 63601 10265 20170 40107 86030=
57162 32965 70901 10264 20175 40107 8703/=
NNNN 

