ZCZC
SXCI40 BFLB 170000
AAXX 17001
57070 11950 82201 10171 20169 40128 69982 71060 8807/ 333
05251 10201 20163 70016=
57074 31958 71101 10193 20160 40130 71000 8703/ 333 05200
10227 20187 79999=
57076 11958 80000 10182 20169 40125 69912 71060 8802/ 333
05251 10212 20125 70001=
57065 11958 72701 10185 20157 40130 69902 71060 8703/ 333
05251 10225 20178 79999=
57066 11950 80000 10176 20165 40132 69902 71060 8802/ 333
05200 10207 20172 79999=
57078 32961 70000 10190 20162 40126 87030 333 05201 10222
20181=
57162 31959 70000 10184 20163 40134 71000 8703/ 333 05200
10216 20180=
NNNN

