ZCZC
SXCI40 BFLB 021200
AAXX 02121
57070 32965 70702 10228 20194 40125 8703/=
57074 32966 70000 10243 20175 40123 8703/=
57076 32965 70404 10238 20192 40116 8703/=
57065 32965 70000 10234 20176 40123 8703/=
57066 32965 70000 10230 20181 40115 8703/=
57078 32965 70902 10238 20163 40125 8703/=
57162 32970 70703 10244 20180 40118 8703/=
NNNN 

