ZCZC
SXCI40 BFLB 020000
AAXX 02001
57070 31940 70902 10195 20190 40140 71000 82032 333 05101
10257 20183=
57074 31440 61601 10202 20183 40144 71000 86600 333 05102
10293 20178=
57076 31958 70000 10212 20187 40137 71000 8703/ 333 05102
10263 20187=
57065 31940 70902 10207 20171 40141 71000 87400 333 05102
10279 20188=
57066 31957 80000 10190 20173 40141 71000 8802/ 333 05102
10262 20166=
57078 31958 80000 10191 20167 40142 71000 8802/ 333 05103
10268 20166=
57162 32968 62201 10182 20164 40142 85032 333 05102 10278
20172=
NNNN 

