ZCZC
SXCI40 BFLB 020600
AAXX 02061
57070 32668 60904 10256 20178 40118 85202=
57074 32666 51101 10291 20176 40117 83102=
57076 32670 60402 10264 20182 40116 84202=
57065 32670 41104 10276 20156 40113 84100=
57066 32663 80000 10257 20191 40109 83137=
57078 32665 60904 10258 20169 40117 86200=
57162 32568 60903 10276 20171 40111 82130=
NNNN 

