ZCZC
SXCI40 BFLB 030000
AAXX 03001
57070 31920 00901 10208 20200 40126 71000 333 05101 10261
20189=
57074 32962 30000 10210 20184 40128 82032 333 05201 10295
20194=
57076 31950 20000 10214 20199 40119 71000 82030 333 05200
10270 20195=
57065 31930 22901 10205 20177 40127 71000 82030 333 05100
10283 20190=
57066 31956 80000 10192 20177 40128 71000 8802/ 333 05100
10268 20186=
57078 32962 21801 10199 20169 40126 82030 333 05101 10263
20181=
57162 32960 70000 10196 20172 40129 80002 333 05101 10282
20183=
NNNN 

