ZCZC
SXCI40 BFLB 060000
AAXX 06001
57070 11920 80903 10222 20222 40071 69902 76060 8802/ 333
00152 10304 20221 79999=
57074 32962 80401 10242 20225 40069 8807/ 333 00151 10331
20240=
57076 11930 80404 10230 20224 40064 69942 71060 8802/ 333
00052 10312 20226 70004=
57065 31920 80402 10237 20212 40071 71000 8802/ 333 00151
10319 20236=
57066 31920 80000 10231 20217 40067 71000 8802/ 333 00101
10312 20223=
57078 31956 80902 10248 20223 40065 71000 8802/ 333 00102
10322 20231=
57162 31950 81401 10244 20222 40067 71000 8802/ 333 00002
10328 20225=
NNNN 

