ZCZC
SXCI40 BFLB 070600
AAXX 07061
57070 11930 80903 10149 20149 40144 69961 76060 8802/=
57074 11656 80701 10166 20153 40142 60011 76060 8672/=
57076 11662 80905 10155 20134 40141 69961 70060 8272/=
57065 11630 80403 10166 20141 40144 60081 76066 8672/=
57066 11665 80000 10166 20148 40136 60041 76060 8272/=
57078 11956 80902 10166 20146 40137 69911 71060 8802/=
57162 11957 80202 10170 20155 40142 60021 71060 8802/=
NNNN 

