ZCZC
SXCI40 BFLB 070000
AAXX 07001
57070 11520 80702 10146 20146 40145 60032 76060 8372/ 333
00658 10222 20145 70049=
57074 11656 80702 10162 20151 40144 69942 76060 8672/ 333
00758 10252 20161 70004=
57076 11565 80404 10157 20134 40141 60062 70060 8472/ 333
00757 10240 20143 70055=
57065 11620 80901 10159 20141 40146 69942 76066 8672/ 333
00758 10241 20158 70012=
57066 11563 80000 10155 20140 40143 60032 76360 8372/ 333
00658 10235 20155 70031=
57078 11940 80901 10158 20143 40138 60032 76060 8802/ 333
00659 10278 20156 70032=
57162 11557 80403 10162 20154 40142 60042 76066 8772/ 333
00658 10258 20161 70046=
NNNN 

