ZCZC
SXCI40 BFLB 081200
AAXX 08121
57070 11520 80901 10146 20146 40178 69911 76060 8672/=
57074 11958 80201 10166 20150 40176 69901 71060 8802/=
57065 11958 80402 10165 20136 40176 69901 71060 8802/=
57066 11561 80000 10156 20140 40175 69901 76060 8372/=
57078 11961 80000 10158 20136 40174 69901 76000 8802/=
57162 11557 83602 10162 20143 40174 69901 76000 8372/=
57076 11950 83602 10159 20150 40166 60011 71060 8802/=
NNNN

