ZCZC
SXCI40 BFLB 090600
AAXX 09061
57070 32771 70904 10201 20142 40160 81132=
57074 32962 70401 10212 20136 40161 8703/=
57065 32962 70902 10216 20130 40161 8703/=
57066 32965 80401 10203 20135 40154 8801/=
57078 32568 40903 10212 20124 40158 81140=
57162 32566 71103 10217 20133 40158 8113/=
57076 32965 60905 10204 20131 40160 86030=
NNNN 

