ZCZC
SXCI40 BFLB 101200
AAXX 10121
57070 32964 81401 10191 20148 40135 8807/=
57074 32962 80201 10206 20140 40136 8802/=
57076 32961 80000 10191 20160 40133 8802/=
57065 32962 80000 10200 20150 40136 8802/=
57066 32962 80000 10182 20155 40137 8802/=
57078 32962 83201 10196 20135 40135 8802/=
57162 32962 80000 10198 20165 40137 8802/=
NNNN

