ZCZC
SXCI40 BFLB 100000
AAXX 10001
57070 32965 80000 10177 20160 40134 8807/ 333 05403 10210
20148=
57074 32962 81601 10182 20143 40137 8802/ 333 05402 10222
20165=
57065 32960 80201 10187 20148 40135 8801/ 333 05402 10217
20164=
57066 31958 80000 10171 20151 40135 71000 8802/ 333 05401
10206 20158=
57078 31930 80401 10169 20142 40136 71000 8802/ 333 05401
10215 20161=
57162 31959 80402 10181 20168 40136 71000 8802/ 333 05402
10226 20162=
57076 32965 80000 10178 20161 40132 8802/ 333 05402 10214
20154=
NNNN 

