ZCZC
SXCI40 BFLB 111200
AAXX 11121
57070 11961 52706 10191 20172 40126 69921 70060 85030=
57074 11962 70000 10216 20168 40126 69901 70060 8707/=
57076 11958 72202 10206 20181 40114 69921 71060 8703/=
57065 11962 72703 10215 20154 40126 69901 70060 8703/=
57066 11963 80000 10197 20165 40138 69901 70060 8807/=
57078 32962 63401 10214 20146 40124 86030=
57162 11961 81602 10216 20180 40132 69901 70080 8807/=
NNNN 

