ZCZC
SXCI40 BFLB 120000
AAXX 12001
57070 11965 80201 10189 20167 40182 69902 76060 8807/ 333
00601 10219 20177 70002=
57074 11958 80000 10190 20175 40178 69912 76000 8802/ 333
00551 10257 20182 70001=
57076 31958 80703 10192 20161 40171 71000 8802/ 333 00501
10234 20174 70002=
57065 11958 80000 10193 20167 40179 69902 76060 8802/ 333
00500 10247 20188 79999=
57066 11556 80000 10181 20168 40178 69912 71060 8172/ 333
00500 10225 20179 70001=
57078 11956 83201 10195 20158 40176 69902 76000 8802/ 333
00501 10250 20189 79999=
57162 11961 81802 10192 20174 40176 69902 76060 8802/ 333
00500 10246 20188 79999=
NNNN 

