ZCZC
SXCI40 BFLB 120600
AAXX 12061
57070 11974 80201 10200 20130 40178 69901 70060 8807/=
57074 11663 80000 10212 20124 40177 69911 70060 8372/=
57076 11975 80404 10213 20085 40172 69901 72100 8807/=
57065 11958 80000 10212 20162 40176 69911 71060 8802/=
57066 11562 83601 10177 20146 40178 69951 76060 8272/=
57078 11965 80201 10199 20119 40176 69911 72160 8807/=
57162 11963 80202 10203 20136 40176 69941 70060 8807/=
NNNN

