ZCZC
SXCI40 BFLB 131200
AAXX 13121
57070 11562 82501 10154 20154 40167 60091 76166 8272/=
57074 11563 80000 10167 20157 40169 60111 76066 8572/=
57076 11550 80000 10163 20161 40164 60071 76166 8372/=
57065 11530 80000 10167 20149 40168 60111 76066 8672/=
57066 11640 80000 10156 20145 40171 60061 76166 8802/=
57078 11561 80000 10164 20142 40166 60031 70060 8672/=
57162 11558 80000 10165 20151 40168 69931 76060 8672/=
NNNN 

