ZCZC
SXCI40 BFLB 130000
AAXX 13001
57070 11970 83202 10157 20157 40182 60022 76160 8807/ 333
05153 10203 20151 70039=
57074 11661 80000 10165 20154 40187 60012 76060 8572/ 333
00153 10216 20163 70028=
57076 11965 81601 10159 20154 40182 60022 76060 8802/ 333
00153 10222 20154 70021=
57065 11956 82702 10164 20142 40184 60022 76060 8802/ 333
00053 10213 20161 70036=
57066 11661 80000 10152 20141 40187 60042 76160 8802/ 333
00053 10186 20148 70115=
57078 11961 80000 10164 20142 40184 60022 76060 8802/ 333
00053 10206 20151 70050=
57162 11557 80000 10164 20150 40185 60022 76160 8672/ 333
00053 10209 20155 70061=
NNNN

