ZCZC
SXCI40 BFLB 141200
AAXX 14121
57070 11968 42504 10186 20164 40138 69901 70060 83032=
57074 11962 60000 10191 20174 40142 69911 70060 86030=
57076 11970 50000 10184 20164 40132 69911 70060 83032=
57065 11980 72703 10201 20147 40139 69911 70060 8703/=
57066 11965 60000 10179 20159 40149 69901 70060 86030=
57078 11570 82703 10195 20132 40141 69901 70060 8572/=
57162 11975 60000 10194 20145 40149 69901 70060 86030=
NNNN

