ZCZC
SXCI40 BFLB 150600
AAXX 15061
57070 32980 21403 10265 20164 40126 80002=
57074 32968 11401 10287 20149 40125 80002=
57076 32965 52701 10269 20175 40121 80001=
57065 32980 10202 10280 20153 40122 80002=
57066 32980 10000 10273 20166 40117 81030=
57078 32980 10702 10271 20127 40124 81030=
57162 32980 20702 10279 20140 40117 82031=
NNNN 

