ZCZC
SXCI40 BFLB 160600
AAXX 16061
57074 11962 80401 10222 20156 40139 69901 70060 8807/=
57076 11958 80000 10208 20186 40142 69901 71060 8802/=
57065 11965 80000 10218 20163 40141 69901 70060 8802/=
57066 11963 80000 10199 20155 40141 69901 70060 8801/=
57078 32968 70901 10222 20143 40135 8703/=
57162 32968 80000 10215 20160 40141 8807/=
57070 11570 80401 10200 20170 40140 69911 76060 8177/=
NNNN

